STARLINK-2636           
1 48357U 21038E   26068.04149262  .00015158  00000+0  52220-3 0  9994
2 48357  53.1585   1.1380 0001199 105.2085 254.9048 15.30240385266984
HAWK-11C                
1 62381U 24247E   26068.51221537  .00009223  00000+0  33290-3 0  9992
2 62381  45.0045 114.8762 0005900 329.7040  30.3502 15.28848020 67743
